[{"OBJECT_NAME":"SHIYAN-6 01 (SY-6 01)","OBJECT_ID":"2018-094B","EPOCH":"2026-03-09T23:04:36.967872","MEAN_MOTION":15.28649156,"ECCENTRICITY":0.00144834,"INCLINATION":97.3669,"RA_OF_ASC_NODE":84.0964,"ARG_OF_PERICENTER":135.6758,"MEAN_ANOMALY":224.5644,"EPHEMERIS_TYPE":0,"CLASSIFICATION_TYPE":"U","NORAD_CAT_ID":43711,"ELEMENT_SET_NO":999,"REV_AT_EPOCH":40632,"BSTAR":0.00024768444,"MEAN_MOTION_DOT":6.847e-5,"MEAN_MOTION_DDOT":0},{"OBJECT_NAME":"STARLINK-34607","OBJECT_ID":"2025-144U","EPOCH":"2026-03-09T12:33:13.745664","MEAN_MOTION":15.30171229,"ECCENTRICITY":0.00014418,"INCLINATION":53.1586,"RA_OF_ASC_NODE":182.0056,"ARG_OF_PERICENTER":112.0264,"MEAN_ANOMALY":248.089,"EPHEMERIS_TYPE":0,"CLASSIFICATION_TYPE":"U","NORAD_CAT_ID":64742,"ELEMENT_SET_NO":999,"REV_AT_EPOCH":3966,"BSTAR":0.00026793801,"MEAN_MOTION_DOT":7.577e-5,"MEAN_MOTION_DDOT":0}]
